{
    "AF": {
        "street1": "4th Macroryan Main Road",
        "state": "",
        "city": "Kabul",
        "zip": ""
    },
    "AX": {
        "street1": "21 Godbyvägen",
        "state": "",
        "city": "Mariehamn",
        "zip": "22100"
    },
    "AL": {
        "street1": "Rruga Dritan Hoxha, Nr. 33",
        "state": "Tirana",
        "city": "Tirana",
        "zip": "1001"
    },
    "AD": {
        "street1": "59-65, Esc",
        "state": "",
        "city": "Andorra la Vella",
        "zip": "AD500"
    },
    "DZ": {
        "street1": "92, chemin Gacem Mohamed",
        "state": "Algiers",
        "city": "Algiers",
        "zip": "16606"
    },
    "AI": {
        "street1": "The Quarter 2640",
        "state": "Anguilla",
        "city": "",
        "zip": ""
    },
    "AR": {
        "street1": "Juncal 2280",
        "state": "Buenos Aires",
        "city": "Buenos Aires",
        "zip": "b1406"
    },
    "AM": {
        "street1": "Nubarashen, 14th St",
        "state": "Yerevan",
        "city": "Yerevan",
        "zip": "0002"
    },
    "AW": {
        "street1": "Wilhelminastraat 80",
        "state": "",
        "city": "Oranjestad",
        "zip": ""
    },
    "AU": {
        "street1": "48 Burnley Street",
        "state": "South Australia",
        "city": "Noarlunga Downs",
        "zip": "5168"
    },
    "AT": {
        "street1": "Ernstbrunner Strasse 19",
        "state": "Lower Austria",
        "city": "Reibers",
        "zip": "3844"
    },
    "AZ": {
        "street1": "86, SHAMSI BADALBEYLI STR",
        "state": "Baku",
        "city": "Baku",
        "zip": "AZ1014"
    },
    "BS": {
        "street1": "Cable Beach West Bay Street, Nassau",
        "state": "Nassau",
        "city": "Nassau",
        "zip": ""
    },
    "BH": {
        "street1": "P.O. Box 22276, Manama",
        "state": "Manama",
        "city": "Manama",
        "zip": ""
    },
    "BD": {
        "street1": "samad mansion, senpara parbata, mirpur, 1216",
        "state": "Dhaka",
        "city": "Dhaka",
        "zip": "1216"
    },
    "BB": {
        "street1": "Sheraton Mall, Christ Church",
        "state": "Barbados",
        "city": "Barbados",
        "zip": ""
    },
    "BY": {
        "street1": "Narodnaya Ul., bld. 46",
        "state": "Minskaya oblast",
        "city": "Minsk",
        "zip": "220004"
    },
    "BE": {
        "street1": "Rue Leval 306",
        "state": "Hainaut",
        "city": "Seneffe",
        "zip": "7180"
    },
    "BZ": {
        "street1": "Kelly St",
        "state": "",
        "city": "Belize City",
        "zip": ""
    },
    "BJ": {
        "street1": "03 BP 215",
        "state": "",
        "city": "Parakou",
        "zip": ""
    },
    "BM": {
        "street1": "St Monica's Rd",
        "state": "",
        "city": "North Shore Village",
        "zip": ""
    },
    "BO": {
        "street1": "Oruro 376",
        "state": "Potosi",
        "city": "Potosi",
        "zip": "524037"
    },
    "BW": {
        "street1": "Plot 1458 Minestone",
        "state": "Francistown",
        "city": "Francistown",
        "zip": "00000"
    },
    "BR": {
        "street1": "Travessa Dezessete 1536",
        "state": "Rio De Janeiro",
        "city": "Rio De Janeiro",
        "zip": "23590-600"
    },
    "BN": {
        "street1": "Lot 5577 Jln Kuala Balai, Belait",
        "state": "Kuala Belait",
        "city": "Belait",
        "zip": "KA1131"
    },
    "BG": {
        "street1": "Gurko, 6",
        "state": "Kuala Belait",
        "city": "Sofia",
        "zip": "1000"
    },
    "KH": {
        "street1": "#168, National Road 5 S/K Svay Pak, Khan Ruessei Kaev",
        "state": "Phnom Penh",
        "city": "Khan Ruessei Kaev",
        "zip": ""
    },
    "CM": {
        "street1": "156 rue des écoles",
        "state": "Douala",
        "city": "Immeuble Collège Libermann",
        "zip": ""
    },
    "CA": {
        "street1": "4010 Port Washington Road",
        "state": "Canmore",
        "city": "Alberta",
        "zip": "T0L 0M0"
    },
    "KY": {
        "street1": "Grand Cayman KY1-1101",
        "state": "George Town",
        "city": "George Cayman",
        "zip": "31350"
    },
    "CL": {
        "street1": "Baquedano 679'",
        "state": "Los Angeles",
        "city": "Los Angeles",
        "zip": "4430000"
    },
    "CN": {
        "street1": "36hao",
        "state": "Beijing",
        "city": "Beijing",
        "zip": "065001"
    },
    "CO": {
        "street1": "Cr 32 No. 102B-31, Medellín",
        "state": "Medellín",
        "city": "Medellín",
        "zip": ""
    },
    "CR": {
        "street1": "150 Este de la Cruz Roja de Santa Ana, Santa Ana",
        "state": "San Jose",
        "city": "Central Santa Ana.",
        "zip": "10901"
    },
    "HR": {
        "street1": "Hrvatske Republike 4",
        "state": "Osijek",
        "city": "Osijek",
        "zip": "31000"
    },
    "CU": {
        "street1": "Oficios No. 114, Habana Vieja",
        "state": "Havana",
        "city": "Habana Vieja",
        "zip": ""
    },
    "CW": {
        "street1": "P.O. Box 24334 1703",
        "state": "Nicosia",
        "city": "Nicosia",
        "zip": "2433"
    },
    "CZ": {
        "street1": "Jiráskova 1161",
        "state": "Stredoceský kraj",
        "city": "Luštenice",
        "zip": "294 42"
    },
    "DK": {
        "street1": "Askelund 23",
        "state": "Region Syddanmark",
        "city": "Blommenslyst",
        "zip": "5491"
    },
    "DO": {
        "street1": "1ra No 52 Herrera",
        "state": "Santo Domingo",
        "city": "",
        "zip": ""
    },
    "EC": {
        "street1": "11 De Noviembre 23-43 Entre Colón Y Larrea",
        "state": "Riobamba",
        "city": "Ecuador",
        "zip": ""
    },
    "EG": {
        "street1": "37 Shabab EL Mohandessin St. Nasr Road, Nasr City",
        "state": "Cairo",
        "city": "Cairo",
        "zip": "3753450"
    },
    "SV": {
        "street1": "Bo San Juan 8 Av Nte No 7, San Rafael Oriente",
        "state": "San Miguel",
        "city": "San Miguel",
        "zip": ""
    },
    "EE": {
        "street1": "Väike-Laagri 27",
        "state": "Harjumaa",
        "city": "Tallinn",
        "zip": "10916"
    },
    "ET": {
        "street1": "Kebele 2, 426/B",
        "state": "Addis Ababa",
        "city": "Addis Ababa",
        "zip": ""
    },
    "FJ": {
        "street1": "132 Grantham Rd",
        "state": "Suva",
        "city": "Raiwaqa",
        "zip": ""
    },
    "FI": {
        "street1": "Puolakantie 69",
        "state": "Uusimaa",
        "city": "Helsinki",
        "zip": "00430"
    },
    "FR": {
        "street1": "59 Faubourg Saint Honoré",
        "state": "Île-de-France",
        "city": "Paris",
        "zip": "75019"
    },
    "GE": {
        "street1": "9 Kavsadze St",
        "state": "",
        "city": "Tbilisi",
        "zip": "0162"
    },
    "DE": {
        "street1": "Lange Strasse 62",
        "state": "Freistaat Bayern",
        "city": "München",
        "zip": "81705"
    },
    "GH": {
        "street1": "6th Floor, GMIC",
        "state": "Accra",
        "city": "Accra",
        "zip": "00233"
    },
    "GR": {
        "street1": "Leoforos Kifisias 43",
        "state": "Attica",
        "city": "Athina",
        "zip": "115 23"
    },
    "GT": {
        "street1": "6 C 22-25 Z-3",
        "state": "Guatemala",
        "city": "Quetzaltenango",
        "zip": ""
    },
    "HN": {
        "street1": "La Ceiba: Ave. San Isidro, Entre 17-18 Cll",
        "state": "La Ceiba",
        "city": "Atlántida",
        "zip": ""
    },
    "HK": {
        "street1": "Rm 1303 13/F 42/46 Shanghai Street",
        "state": "Hong Kong",
        "city": "Hong Kong",
        "zip": "999077"
    },
    "HU": {
        "street1": "Kis Diófa u. 2",
        "state": "Vas",
        "city": "Halogy",
        "zip": "9917"
    },
    "IS": {
        "street1": "Armúli 89",
        "state": "",
        "city": "Reykjavík",
        "zip": "130"
    },
    "IN": {
        "street1": "Plot No 5, Knowledge Park 2",
        "state": "Uttar Pradesh",
        "city": "Delhi",
        "zip": "201301"
    },
    "ID": {
        "street1": "Jl Kuala Mas XV 727, Jawa Tengah",
        "state": "Semarang",
        "city": "Jawa Tengah",
        "zip": "50177"
    },
    "IR": {
        "street1": "East Kalantari St., 17",
        "state": "",
        "city": "Reykjavík",
        "zip": "130"
    },
    "IE": {
        "street1": "8 Tourmakeady Rd, 9",
        "state": "County Dublin",
        "city": "Dublin",
        "zip": ""
    },
    "IL": {
        "street1": "Yad Hamavir 49 Israel",
        "state": "",
        "city": "Tel Aviv",
        "zip": "9329302"
    },
    "IT": {
        "street1": "Armúli 89",
        "state": "",
        "city": "Reykjavík",
        "zip": "130"
    },
    "CI": {
        "street1": "Abidjan - Plateau, 01 Bp 2300 Abidjan 01",
        "state": "Abidjan",
        "city": "Abidjan",
        "zip": ""
    },
    "JM": {
        "street1": "Pineapple Pl",
        "state": "Ocho Rios",
        "city": "Ocho Rios",
        "zip": ""
    },
    "JP": {
        "street1": "Ebisu 4-chome, Shibuya-ku",
        "state": "",
        "city": "Tokyo",
        "zip": "100-0000"
    },
    "JO": {
        "street1": "Al-Jawazat",
        "state": "Amman",
        "city": "Jabal Amman",
        "zip": ""
    },
    "KZ": {
        "street1": "Mkr.orbita-4, bld. 11/57",
        "state": "Almatinskaya oblast",
        "city": "Almaty",
        "zip": "050000"
    },
    "KE": {
        "street1": " Postal : 34777-00100 Nairobi GPO",
        "state": "Nairobi",
        "city": "Nairobi",
        "zip": ""
    },
    "KW": {
        "street1": "P.O.Box: 3422; 13035 Safat",
        "state": "Kuwait City",
        "city": "Kuwait City",
        "zip": ""
    },
    "LV": {
        "street1": "Gramzdas, bld. 19/3",
        "state": "",
        "city": "Riga",
        "zip": "1000"
    },
    "LB": {
        "street1": "Yoronik Property, Beirut",
        "state": "Lebanon",
        "city": "Lebanon",
        "zip": ""
    },
    "LS": {
        "street1": "P.O.Box 23",
        "state": "Lesotho",
        "city": "Teyateyaneng",
        "zip": ""
    },
    "LY": {
        "street1": "Burj Al-Fateh Tower First Round , P.O.Box: 6038 ( Hai Al-Andalus )",
        "state": "Tripoli",
        "city": "Tripoli",
        "zip": ""
    },
    "LT": {
        "street1": "Minsko pl. 9, LT-02121, Vilniaus m. sav.",
        "state": "Vilnius",
        "city": "Vilnius",
        "zip": "01100"
    },
    "LU": {
        "street1": "18 Rue Jean Jaures, L-4152",
        "state": "Esch-sur-alzette",
        "city": "Esch-sur-alzette",
        "zip": ""
    },
    "MG": {
        "street1": "Pfoi Propriete Lamatra Ville Basse Rue De Villers,",
        "state": "Antsiranana",
        "city": "",
        "zip": ""
    },
    "MW": {
        "street1": "P.O.Box 143",
        "state": "Blantyre",
        "city": "Blantyre",
        "zip": ""
    },
    "MY": {
        "street1": "Level 32",
        "state": "Wilayah Persekutuan",
        "city": "Kuala Lumpur",
        "zip": "50450"
    },
    "ML": {
        "street1": "MAGNANBOUGOU, RUE 523 PORTE 753, BP 298",
        "state": "Bamako",
        "city": "Bamako",
        "zip": ""
    },
    "MT": {
        "street1": "Triq il-Madonna tal-Karmnu",
        "state": "Xlendi (gozo)",
        "city": "Xlendi (gozo)",
        "zip": ""
    },
    "MU": {
        "street1": "21 Flamants Avenue, Sodnac",
        "state": "",
        "city": "Quatre Bornes",
        "zip": ""
    },
    "MX": {
        "street1": "INDEPENDENCIA NO. 202",
        "state": "Oaxaca",
        "city": "Oaxaca",
        "zip": "68000"
    },
    "MD": {
        "street1": "Gste, bld. 13",
        "state": "Moldova",
        "city": "Kishinev",
        "zip": ""
    },
    "ME": {
        "street1": "30, Pohorska",
        "state": "Podgorica Capital City",
        "city": "Podgorica",
        "zip": "80001"
    },
    "MA": {
        "street1": "9, rue Banafsaj -ex Bugeaud, Grand Casablanca",
        "state": "Casablanca",
        "city": "Grand Casablanca",
        "zip": "20140"
    },
    "MM": {
        "street1": "No.355-357, G/Flr, Bo Aung Kyaw Rd",
        "state": "Yangon",
        "city": "Kyauktada",
        "zip": ""
    },
    "NA": {
        "street1": " P.O.Box 40559",
        "state": "",
        "city": "Windhoek",
        "zip": ""
    },
    "NP": {
        "street1": "Chakupat",
        "state": "Kathmandu",
        "city": "",
        "zip": ""
    },
    "NL": {
        "street1": "Marnixstraat 47",
        "state": "Noord-Holland",
        "city": "Amsterdam",
        "zip": "1017 PJ"
    },
    "NZ": {
        "street1": "188 Edinburgh Crescent",
        "state": "Blenheim",
        "city": "Omaka",
        "zip": " 7201"
    },
    "NI": {
        "street1": "Bo 19 de Julio Ministerio de Gobernación 1/2c al N, No.907",
        "state": "Managua",
        "city": "Managua",
        "zip": ""
    },
    "NG": {
        "street1": "4, Asiwaju Street",
        "state": "Akinyele",
        "city": "Ojo",
        "zip": ""
    },
    "NO": {
        "street1": "Wolffs gate 214",
        "state": "",
        "city": "Oslo",
        "zip": "0358"
    },
    "OM": {
        "street1": "P O Box: 2816, P. C: 112",
        "state": "Al Khuwair",
        "city": "Al Khuwair",
        "zip": ""
    },
    "PK": {
        "street1": "Gulberg II, Lahore(Gurumangat Road, Lahore)",
        "state": "Punjab",
        "city": "Lahore",
        "zip": ""
    },
    "PA": {
        "street1": "Cl E Altos De Bethania, 16",
        "state": "Panamá",
        "city": "Panamá",
        "zip": ""
    },
    "PG": {
        "street1": "P.O. Box 464, Mt Hagen 281",
        "state": "Mount Hagen",
        "city": "Highlands Region",
        "zip": ""
    },
    "PY": {
        "street1": "Yegros Nº 615, Edif. Bittar, 4to. Piso",
        "state": "Asunción",
        "city": "Ofic. C",
        "zip": ""
    },
    "PE": {
        "street1": "Huáscar,2009,Chiclayito",
        "state": "Piura",
        "city": "Chiclayito",
        "zip": ""
    },
    "PH": {
        "street1": "Robinson's Place Metro East, Marcos Highway, Dela Paz",
        "state": "Metro Manila",
        "city": "Pasig City",
        "zip": ""
    },
    "PL": {
        "street1": "ul. Sarny 23",
        "state": "",
        "city": "Warszawa",
        "zip": "04-901"
    },
    "PT": {
        "street1": "R Desidério Bessa 110",
        "state": "Lisboa",
        "city": "Lisboa",
        "zip": "1400-160"
    },
    "PR": {
        "street1": "63 San Salvador, 006804752",
        "state": "Mayaguez",
        "city": "Mayaguez",
        "zip": ""
    },
    "QA": {
        "street1": "Shop No. 81, C. P. Tank Road Mumbai - 400004",
        "state": "Mumbai India",
        "city": "Maharashtra. India.",
        "zip": ""
    },
    "RO": {
        "street1": "STR. IPĂTESCU GRIGORE, GEN. nr. 10",
        "state": "Bucharest",
        "city": "Bucharest",
        "zip": "010001"
    },
    "RU": {
        "street1": "Komsomolskaya Ul., bld. 28, appt. 44",
        "state": "KHabarovskiy kray",
        "city": "Khabarovsk",
        "zip": ""
    },
    "RW": {
        "street1": "BITEGA, BP. 1288",
        "state": "Kigali",
        "city": "Kigali",
        "zip": ""
    },
    "SA": {
        "street1": "Deerah Dist.,",
        "state": "Riyadh",
        "city": "Riyadh Deerah Dist.",
        "zip": ""
    },
    "SN": {
        "street1": "Square Gare Routière Thiaroye, Thiaroye Gare",
        "state": "Pikine",
        "city": "Pikine",
        "zip": ""
    },
    "RS": {
        "street1": "Ilichova 54",
        "state": "Belgrade",
        "city": "Palilula",
        "zip": "11060"
    },
    "SG": {
        "street1": "100 Jln Sultan #03-31",
        "state": "",
        "city": "Singapore",
        "zip": "199001"
    },
    "SK": {
        "street1": "Gercenova 6C, Petržalka",
        "state": "Bratislava",
        "city": "Bratislava",
        "zip": "85101"
    },
    "SI": {
        "street1": "Ilichova 54",
        "state": "",
        "city": "Ljubljana",
        "zip": "1520"
    },
    "ZA": {
        "street1": "1053 Old Cres",
        "state": "Eastern Cape",
        "city": "Cofimvaba",
        "zip": "5331"
    },
    "KR": {
        "street1": "346-10, Geoyeo 1(il)-dong",
        "state": "Seoul",
        "city": "Seoul",
        "zip": "100-011"
    },
    "ES": {
        "street1": "C/ Benito Guinea 72",
        "state": "Barcelona",
        "city": "Premià De Mar",
        "zip": "08330"
    },
    "LK": {
        "street1": "95, COTTA ROAD",
        "state": "Colombo",
        "city": "Colombo",
        "zip": ""
    },
    "SD": {
        "street1": "Rainville, pater weidmanstraat 66",
        "state": "Paramaribo",
        "city": "Paramaribo",
        "zip": ""
    },
    "SE": {
        "street1": "Tulpanv 25",
        "state": "",
        "city": "Marieholm",
        "zip": "240 30"
    },
    "CH": {
        "street1": "Strickstrasse 12",
        "state": "",
        "city": "Zürich",
        "zip": "8098"
    },
    "TW": {
        "street1": "5th Fl.-3",
        "state": "Taipei",
        "city": "Taiwan",
        "zip": ""
    },
    "TJ": {
        "street1": "Off Sukari Road, P.O. Box: 8002",
        "state": "Moshi",
        "city": "Moshi",
        "zip": ""
    },
    "TH": {
        "street1": "255 Soi Charoensuk Rama Iv Khlong Toei Khlong Toei",
        "state": "Bangkok",
        "city": "Bangkok",
        "zip": "10110"
    },
    "TT": {
        "street1": "Southern Main Road, P.O.Box 17400",
        "state": "Couva",
        "city": "Couva",
        "zip": ""
    },
    "TN": {
        "street1": "86 Rue Wanes Chbil",
        "state": "Governorate Sousse",
        "city": "Cite Sinan Pacha",
        "zip": "4041"
    },
    "TR": {
        "street1": "Yalıköşkü Caddesi, yalıköşkü han",
        "state": "Istanbul",
        "city": "Istanbul",
        "zip": "34000"
    },
    "UG": {
        "street1": "9/5 Bombo Road Gathani House, 1574,Kampala",
        "state": "Kampala",
        "city": "Kampala",
        "zip": ""
    },
    "UA": {
        "street1": "Shevchenko, 1",
        "state": "Kyivska oblast",
        "city": "Kyiv",
        "zip": "01001"
    },
    "GB": {
        "street1": "72 Felix Lane",
        "state": "",
        "city": "Shortacombe",
        "zip": "EX20 6RF"
    },
    "US": {
        "street1": "2468 Locust Street",
        "state": "Georgia",
        "city": "Mc Rae",
        "zip": "31055"
    },
    "UY": {
        "street1": "Joaquin Suarez 4326",
        "state": "Canelones",
        "city": "Atlántida",
        "zip": "16000"
    },
    "UZ": {
        "street1": "15, Square Universitet",
        "state": "Samarkand",
        "city": "Samarkand Region",
        "zip": ""
    },
    "VE": {
        "street1": "Nivel PB, Local 8-B, Sector Petare",
        "state": "Distrito Capital",
        "city": "Caracas",
        "zip": ""
    },
    "VN": {
        "street1": "79A Nguyen Khuyen St.",
        "state": "Hanoi",
        "city": "Dong Da Dist.",
        "zip": ""
    },
    "YE": {
        "street1": "Queen Arwa St, Arwa",
        "state": "Aden",
        "city": "Aden",
        "zip": ""
    },
    "ZM": {
        "street1": "377A/9 Kabulonga Rd Kabulonga",
        "state": "Lusaka",
        "city": "Woodlands",
        "zip": ""
    },
    "ZW": {
        "street1": "26 Fleetwood Rd Alexandra Park",
        "state": "Harare",
        "city": "Harare",
        "zip": ""
    },
    "CY": {
        "street1": "35 Kappadokias 2028 Strovolos",
        "state": "Nicosia",
        "city": "Nicosia",
        "zip": "2028"
    }
}
